COSMOS 2425 (716)       
1 29670U 06062A   20196.45389100  .00000005  00000-0  00000-0 0  9991
2 29670  64.9475 266.8791 0022919 340.8135  56.4865  2.13107570105474
COSMOS 2433 (720)       
1 32275U 07052A   20197.33230381 -.00000032  00000-0  10000-3 0  9995
2 32275  65.9885  27.9947 0000781 216.1885 320.0486  2.13104214 99006
COSMOS 2432 (719)       
1 32276U 07052B   20196.48184934 -.00000037  00000-0  10000-3 0  9998
2 32276  66.0027  28.1099 0009434 340.9364 213.0065  2.13103634 98985
COSMOS 2434 (721)       
1 32393U 07065A   20197.36040628  .00000020  00000-0  00000-0 0  9998
2 32393  64.5637 265.4633 0002696 127.7203 317.7389  2.13103106 97716
COSMOS 2436 (723)       
1 32395U 07065C   20197.62368285  .00000023  00000-0  10000-3 0  9998
2 32395  64.5718 265.5060 0012922 354.0801  69.5946  2.13103257 97656
COSMOS 2456 (730)       
1 36111U 09070A   20197.19892594  .00000026  00000-0  00000-0 0  9992
2 36111  64.2324 145.1420 0005915 307.1681 187.8617  2.13102927 82373
COSMOS 2457 (733)       
1 36112U 09070B   20197.23035056  .00000025  00000-0  00000-0 0  9999
2 36112  64.2153 145.0331 0004583 191.2954  90.9665  2.13101515 82378
COSMOS 2459 (731)       
1 36400U 10007A   20197.30217167 -.00000033  00000-0  10000-3 0  9998
2 36400  65.8937  26.9624 0025169 354.9464  13.7046  2.13105144 80730
COSMOS 2461 (735)       
1 36401U 10007B   20196.28498122 -.00000039  00000-0  10000-3 0  9993
2 36401  65.8842  26.9654 0009260  66.5933 149.4831  2.13102039 80706
COSMOS 2460 (732)       
1 36402U 10007C   20196.42488589 -.00000038  00000-0  10000-3 0  9995
2 36402  65.8768  26.9190 0002438  94.6650 267.7841  2.13101469 80719
COSMOS 2464 (736)       
1 37139U 10041C   20197.40317120  .00000021  00000-0  00000-0 0  9999
2 37139  64.1622 264.8858 0025210   9.4728 332.1923  2.13100738 76794
COSMOS 2471 (701K)      
1 37372U 11009A   20196.45153487 -.00000038  00000-0  00000-0 0  9990
2 37372  65.8751  26.8581 0007696 218.9996 324.2968  2.13107525 72984
COSMOS 2476 (744)       
1 37867U 11064A   20197.15252532  .00000029  00000-0  00000-0 0  9998
2 37867  64.5312 146.2240 0021269 242.3775 117.9336  2.13101892 67722
COSMOS 2477 (745)       
1 37868U 11064B   20197.54603796  .00000026  00000-0  00000-0 0  9991
2 37868  64.5398 146.2663 0018775 243.9720 236.7206  2.13101801 67682
COSMOS 2475 (743)       
1 37869U 11064C   20197.62262266  .00000026  00000-0  00000-0 0  9994
2 37869  64.5470 146.2658 0023213 263.0694 233.7787  2.13102100 67699
COSMOS 2485 (747)       
1 39155U 13019A   20197.02476763  .00000030  00000-0  00000-0 0  9994
2 39155  64.6987 146.5029 0021563 237.8176  69.0446  2.13101945 56188
COSMOS 2492 (754)       
1 39620U 14012A   20197.56612381 -.00000032  00000-0  10000-3 0  9999
2 39620  65.7633  26.6596 0012525 334.0548  63.1691  2.13103207 49152
COSMOS 2500 (755)       
1 40001U 14032A   20197.24370580 -.00000034  00000-0  00000-0 0  9991
2 40001  65.7040  26.5837 0005614 185.6329 184.7340  2.13102511 47363
COSMOS 2501 (702K)      
1 40315U 14075A   20197.49016542  .00000020  00000-0  00000+0 0  9991
2 40315  63.8785 265.8181 0017471 208.0109 146.2612  2.13098689 43761
COSMOS 2514 (751)       
1 41330U 16008A   20197.23086316 -.00000035  00000-0  00000-0 0  9993
2 41330  65.5078  26.4503 0008603 202.7938 340.2035  2.13102971 34529
COSMOS 2516 (753)       
1 41554U 16032A   20197.61730669  .00000022  00000-0  00000-0 0  9992
2 41554  64.1032 265.8930 0014489 218.8641 151.4509  2.13101853 32145
COSMOS 2522 (752)       
1 42939U 17055A   20197.41650293  .00000019  00000-0  00000-0 0  9994
2 42939  64.3350 266.0893 0008652 241.4291 201.4092  2.13101924 21899
COSMOS 2527 (756)       
1 43508U 18053A   20197.53254381  .00000027  00000-0  00000-0 0  9996
2 43508  64.8632 146.3396 0008912 242.6693 321.0312  2.13102574 16188
COSMOS 2529 (757)       
1 43687U 18086A   20197.36096037  .00000018  00000-0  00000-0 0  9993
2 43687  64.5513 266.2183 0010595 265.0270  90.8208  2.13102047 13195
COSMOS 2534 (758)       
1 44299U 19030A   20197.22997716  .00000017  00000-0  00000+0 0  9990
2 44299  64.6197 266.0410 0013257 283.8874 106.5193  2.13102030  8847
COSMOS 2544 (759)       
1 44850U 19088A   20197.32885162  .00000028  00000-0  00000+0 0  9990
2 44850  64.8470 146.2171 0013489 268.4452 183.0454  2.13102272  4627
COSMOS 2545 (760)       
1 45358U 20018A   20196.46604704 -.00000041  00000-0  00000+0 0  9990
2 45358  64.8352  27.6645 0006682 247.5900 112.4006  2.13102837  2557
